STARLINK-1488           
1 45775U 20038AX  24220.16667824  .00070883  00000+0  10440-2 0  9997
2 45775  53.0654 199.2179 0005021   6.2219 180.8680 15.54787215231506
STARLINK-1489           
1 45776U 20038AY  24219.54447315  .00048083  00000+0  22406-2 0  9991
2 45776  53.0503 273.1337 0002362  44.2697 315.8486 15.19444735229436
STARLINK-1490           
1 45777U 20038AZ  24220.01867628  .00029032  00000+0  77102-3 0  9996
2 45777  53.0283 226.5761 0006154 342.3573  17.7215 15.38050253231253
STARLINK-1491           
1 45778U 20038BA  24220.13800794  .00001564  00000+0  12397-3 0  9996
2 45778  53.0528 278.3273 0001436  85.1888 274.9265 15.06365447230517
STARLINK-1492           
1 45779U 20038BB  24220.10506859  .00061010  00000+0  13418-2 0  9995
2 45779  53.0209 195.1456 0003619  45.4007 314.7293 15.43425876231687
STARLINK-1496           
1 45780U 20038BC  24219.54824806 -.00001861  00000+0 -10610-3 0  9990
2 45780  53.0554 280.9756 0001485  99.2328 260.8829 15.06385230229300
STARLINK-1497           
1 45781U 20038BD  24219.44135494  .00001184  00000+0  98374-4 0  9998
2 45781  53.0532 281.4560 0001375  91.1264 268.9882 15.06387754230228
STARLINK-1498           
1 45782U 20038BE  24220.10252428  .00040508  00000+0  84141-3 0  9990
2 45782  53.0441 194.2205 0002605 340.3761  19.7144 15.45297720231526
STARLINK-1505           
1 45783U 20038BF  24219.57036304  .00001068  00000+0  90611-4 0  9991
2 45783  53.0538 280.8744 0001338  94.4688 265.6454 15.06385855229326
STARLINK-1510           
1 45784U 20038BG  24219.34328817  .00033335  00000+0  22039-2 0  9999
2 45784  53.0543 281.8695 0001530  48.7825 311.3296 15.07104899229284
STARLINK-1512           
1 45785U 20038BH  24219.91667824  .00123951  00000+0  24024-2 0  9997
2 45785  53.0508 272.0138 0002820  85.2889   7.1099 15.46795370  5836
STARLINK-1513           
1 45786U 20038BJ  24219.17964054  .00010715  00000+0  73689-3 0  9996
2 45786  53.0542 282.6291 0001610 101.9237 258.1933 15.06413637229260
STARLINK-1517           
1 45787U 20038BK  24219.31972007  .00002293  00000+0  17279-3 0  9995
2 45787  53.0535 282.0020 0001069  74.7674 285.3433 15.06394207229287
STARLINK-1522           
1 46027U 20055A   24219.69106848 -.00001205  00000+0 -62043-4 0  9999
2 46027  53.0528 210.3364 0001218  99.3443 260.7683 15.06395845221460
STARLINK-1523           
1 46028U 20055B   24219.70580783  .00000037  00000+0  21345-4 0  9996
2 46028  53.0526 210.2672 0001504  77.1138 283.0019 15.06411616221481
STARLINK-1526           
1 46029U 20055C   24219.69843820 -.00001451  00000+0 -78549-4 0  9990
2 46029  53.0521 210.2992 0001465  93.9265 266.1891 15.06390803221478
STARLINK-1534           
1 46030U 20055D   24220.18130528 -.00000876  00000+0 -39965-4 0  9991
2 46030  53.0538 208.1331 0001443  89.1732 270.9423 15.06384984221032
STARLINK-1544           
1 46031U 20055E   24220.17400548  .00000226  00000+0  34052-4 0  9992
2 46031  53.0552 208.7386 0001604  98.2324 261.8847 15.06387706221025
STARLINK-1555           
1 46032U 20055F   24220.01544713 -.00000230  00000+0  34766-5 0  9998
2 46032  53.0532 208.8758 0001764  91.5920 268.5271 15.06399331221003
STARLINK-1556           
1 46033U 20055G   24219.26717574  .00000875  00000+0  77638-4 0  9999
2 46033  53.0543 212.2315 0001475  91.7152 268.4006 15.06408845221389
STARLINK-1557           
1 46034U 20055H   24219.66895703 -.00000123  00000+0  10619-4 0  9998
2 46034  53.0539 210.4305 0001403  91.9493 268.1656 15.06394439221443
STARLINK-1558           
1 46035U 20055J   24219.67631654  .00002425  00000+0  18168-3 0  9995
2 46035  53.0541 210.3973 0001320  93.1166 266.9974 15.06395760221476
STARLINK-1560           
1 46036U 20055K   24219.66158057  .00000590  00000+0  58501-4 0  9993
2 46036  53.0529 210.4618 0001357  91.2530 268.8615 15.06400282221473
STARLINK-1565           
1 46037U 20055L   24219.25981098  .00000868  00000+0  77178-4 0  9997
2 46037  53.0542 212.2674 0001422  93.2553 266.8599 15.06403381220898
STARLINK-1567           
1 46038U 20055M   24219.67263757 -.00000833  00000+0 -37056-4 0  9994
2 46038  53.0537 210.4154 0001277  84.6254 275.4881 15.06393344220950
STARLINK-1569           
1 46039U 20055N   24219.68001123 -.00000853  00000+0 -38370-4 0  9995
2 46039  53.0536 210.3808 0001323  91.3637 268.7503 15.06398400221468
STARLINK-1580           
1 46041U 20055Q   24219.25613322  .00003363  00000+0  24448-3 0  9998
2 46041  53.0532 212.3718 0001443  91.5748 268.5406 15.06410973221377
STARLINK-1581           
1 46042U 20055R   24219.96015465  .00001548  00000+0  12283-3 0  9998
2 46042  53.0535 209.1251 0001562  87.7742 272.3426 15.06385886221009
STARLINK-1582           
1 46043U 20055S   24219.68737042 -.00006072  00000+0 -38882-3 0  9992
2 46043  53.0541 210.3502 0001318  84.5149 275.5991 15.06423992221468
STARLINK-1591           
1 46045U 20055U   24220.17762111 -.00000170  00000+0  74701-5 0  9999
2 46045  53.0537 208.1491 0001438  89.1720 270.9434 15.06386672221033
STARLINK-1524           
1 46047U 20055W   24219.66619306 -.00000981  00000+0 -46978-4 0  9995
2 46047  53.0546 200.4456 0001464  94.4510 265.6646 15.06397302221607
STARLINK-1527           
1 46048U 20055X   24219.92789529  .00001229  00000+0  10140-3 0  9995
2 46048  53.0537 199.2702 0001725  81.9341 278.1844 15.06388127221132
STARLINK-1540           
1 46051U 20055AA  24219.96106772  .00000395  00000+0  45454-4 0  9996
2 46051  53.0538 199.1156 0001826 102.9467 257.1726 15.06393969221668
STARLINK-1541           
1 46052U 20055AB  24219.94632713  .00000478  00000+0  50969-4 0  9993
2 46052  53.0525 199.1874 0001601  87.6873 272.4300 15.06389299221134
STARLINK-1543           
1 46053U 20055AC  24220.08271197  .00000065  00000+0  23273-4 0  9996
2 46053  53.0535 198.5739 0001405  92.2504 267.8646 15.06383225221150
STARLINK-1548           
1 46054U 20055AD  24220.09007889 -.00000504  00000+0 -14970-4 0  9997
2 46054  53.0540 198.5415 0001412  92.6191 267.4960 15.06389137221133
STARLINK-1554           
1 46055U 20055AE  24219.34551256  .00001717  00000+0  13411-3 0  9999
2 46055  53.0542 201.8837 0001385  90.2084 269.9064 15.06405369221561
STARLINK-1564           
1 46058U 20055AH  24220.08645498 -.00000175  00000+0  71445-5 0  9998
2 46058  53.0539 199.0213 0001449  90.2628 269.8527 15.06387019221138
STARLINK-1570           
1 46059U 20055AJ  24220.18223074 -.00000783  00000+0 -33662-4 0  9996
2 46059  53.0538 198.1294 0001368  93.2328 266.8817 15.06387812221159
STARLINK-1572           
1 46060U 20055AK  24220.17853766 -.00001440  00000+0 -77808-4 0  9995
2 46060  53.0539 198.1454 0001710 103.9345 256.1834 15.06398381221153
STARLINK-1573           
1 46061U 20055AL  24220.17485957 -.00001048  00000+0 -51467-4 0  9996
2 46061  53.0559 198.1975 0001726 118.0037 242.1127 15.06381323221154
STARLINK-1574           
1 46062U 20055AM  24219.93895065  .00001090  00000+0  92084-4 0  9999
2 46062  53.0550 199.2201 0001628  86.8488 273.2687 15.06395371221113
STARLINK-1577           
1 46063U 20055AN  24219.66987748 -.00000843  00000+0 -37713-4 0  9995
2 46063  53.0530 200.4270 0001303  87.4578 272.6561 15.06398800221608
STARLINK-1583           
1 46064U 20055AP  24220.10113531 -.00000259  00000+0  15234-5 0  9993
2 46064  53.0538 198.4888 0001230  85.7481 274.3648 15.06388814221149
STARLINK-1525           
1 46066U 20055AR  24220.09928866 -.00000993  00000+0 -47793-4 0  9998
2 46066  53.0532 178.4986 0001362  99.1606 260.9537 15.06394236221419
STARLINK-1532           
1 46068U 20055AT  24220.16667824  .00918812  38075-3  24189-2 0  9997
2 46068  53.0403 112.7615 0004387 188.9154 290.5890 15.94248283222333
STARLINK-1533           
1 46069U 20055AU  24220.06242662 -.00003795  00000+0 -23609-3 0  9993
2 46069  53.0528 178.6652 0001616  81.1681 278.9491 15.06386836221410
STARLINK-1536           
1 46070U 20055AV  24220.07717034 -.00000009  00000+0  18302-4 0  9995
2 46070  53.0533 178.5986 0001429  80.9527 279.1624 15.06396958221412
STARLINK-1538           
1 46071U 20055AW  24220.09560948 -.00000410  00000+0 -86480-5 0  9998
2 46071  53.0539 178.5156 0001523  95.7391 264.3772 15.06390114221414
STARLINK-1542           
1 46073U 20055AY  24220.06981241  .00000070  00000+0  23606-4 0  9990
2 46073  53.0539 178.6355 0001585  87.8646 272.2525 15.06382945221418
STARLINK-1549           
1 46074U 20055AZ  24219.92236565 -.00002857  00000+0 -17305-3 0  9991
2 46074  53.0551 179.2946 0001581  84.3204 275.7965 15.06390715221919
STARLINK-1551           
1 46075U 20055BA  24220.08086733  .00000025  00000+0  20560-4 0  9992
2 46075  53.0539 178.5829 0001871  89.0271 271.0932 15.06390423221410
STARLINK-1552           
1 46076U 20055BB  24220.10666404  .00000102  00000+0  25738-4 0  9993
2 46076  53.0546 178.4667 0001479  99.4166 260.6991 15.06392992221412
STARLINK-1559           
1 46077U 20055BC  24220.08824197 -.00000424  00000+0 -95852-5 0  9990
2 46077  53.0540 178.5500 0001467  91.9787 268.1370 15.06382787221412
STARLINK-1563           
1 46078U 20055BD  24220.06612763 -.00000517  00000+0 -15810-4 0  9991
2 46078  53.0546 178.6497 0001355  88.7684 271.3461 15.06381860221419
STARLINK-1566           
1 46079U 20055BE  24220.05874438 -.00001781  00000+0 -10071-3 0  9997
2 46079  53.0543 178.6834 0002005  99.7159 260.4056 15.06388608221410
STARLINK-1568           
1 46080U 20055BF  24220.04403319 -.00002771  00000+0 -16712-3 0  9992
2 46080  53.0530 179.0130 0002386 122.8817 237.2402 15.06406404221404
STARLINK-1571           
1 46081U 20055BG  24220.05137088 -.00001952  00000+0 -11219-3 0  9998
2 46081  53.0531 178.7185 0001467  98.9538 261.1617 15.06390230221407
STARLINK-1578           
1 46082U 20055BH  24220.07349296  .00002087  00000+0  15907-3 0  9993
2 46082  53.0545 178.6151 0001969  80.5263 279.5948 15.06383954221410
